{"fetched_at":"2026-03-29T02:12:04Z","count":15717,"tles":[{"name":"HULIANWANG DIGUI-87","line1":"1 65995U 25231A   26086.52037534 -.00000098  00000+0  55987-4 0  9993","line2":"2 65995  49.9985 108.7660 0000736 281.6318  78.4471 13.29332071 22021","category":"Other"}]}